[{"OBJECT_NAME":"STRAND-1","OBJECT_ID":"2013-009E","EPOCH":"2026-03-09T21:53:59.161920","MEAN_MOTION":14.37095119,"ECCENTRICITY":0.00090423,"INCLINATION":98.3888,"RA_OF_ASC_NODE":251.5986,"ARG_OF_PERICENTER":161.0822,"MEAN_ANOMALY":199.0703,"EPHEMERIS_TYPE":0,"CLASSIFICATION_TYPE":"U","NORAD_CAT_ID":39090,"ELEMENT_SET_NO":999,"REV_AT_EPOCH":68280,"BSTAR":0.00017106883,"MEAN_MOTION_DOT":4.66e-6,"MEAN_MOTION_DDOT":0},{"OBJECT_NAME":"IRIDIUM 16","OBJECT_ID":"1997-030F","EPOCH":"2026-03-09T13:50:00.042432","MEAN_MOTION":14.38982523,"ECCENTRICITY":1.72e-5,"INCLINATION":86.3971,"RA_OF_ASC_NODE":93.8034,"ARG_OF_PERICENTER":27.57,"MEAN_ANOMALY":332.5507,"EPHEMERIS_TYPE":0,"CLASSIFICATION_TYPE":"U","NORAD_CAT_ID":24841,"ELEMENT_SET_NO":999,"REV_AT_EPOCH":50516,"BSTAR":0.00013461,"MEAN_MOTION_DOT":4.35e-6,"MEAN_MOTION_DDOT":0}]
